METHANESAT              
1 59101U 24043D   26079.88285555  .00002634  00000+0  23008-3 0  9999
2 59101  97.8290 210.5886 0009640 307.0204  53.0135 14.97648590111438
GOSAT-GW (IBUKI GW)     
1 64694U 25141A   26065.03170321  .00001373  00000+0  25032-3 0  9996
2 64694  98.0504   4.0681 0001432  83.7436 276.3932 14.67569112 36718
GHGSAT-C1               
1 46278U 20061G   26079.92047255  .00032089  00000+0  32432-3 0  9992
2 46278  97.2145 162.5414 0001355  59.7691 300.3703 15.65265892309648
GHGSAT-C12              
1 64529U 25135B   26079.83564191  .00003678  00000+0  17568-3 0  9996
2 64529  97.4634 195.5220 0006421 116.7425 243.4468 15.19650009 41400
GHGSAT-C13              
1 64548U 25135W   26079.88051969  .00003604  00000+0  16891-3 0  9993
2 64548  97.4663 196.0058 0002618  79.9888 280.1643 15.20332317 41432
GHGSAT-C2               
1 47509U 21006DA  26079.55756950  .00006262  00000+0  17697-3 0  9998
2 47509  97.2265 128.3471 0006844 119.5121 240.6807 15.36671522286232
GHGSAT-C3               
1 52737U 22057F   26079.90330348  .00007494  00000+0  23664-3 0  9991
2 52737  97.6455 222.4002 0007191  80.3937 279.8117 15.33121484212004
GHGSAT-C4               
1 52746U 22057Q   26079.92300888  .00007666  00000+0  24208-3 0  9995
2 52746  97.6380 221.3416 0007256  67.6221 292.5789 15.33109757212011
GHGSAT-C5               
1 52744U 22057N   26079.94094769  .00007670  00000+0  24222-3 0  9994
2 52744  97.6545 223.9103 0008193  76.4116 283.8038 15.33099588212015
GHGSAT-C6               
1 56204U 23054AC  26079.90369403  .00015215  00000+0  27027-3 0  9993
2 56204  97.3121 348.3737 0007666  20.5408 339.6151 15.50258662164763
GHGSAT-C7               
1 56209U 23054AH  26079.88469847  .00012669  00000+0  24457-3 0  9992
2 56209  97.3069 347.2351 0008177  13.0348 347.1112 15.47910388164720
GHGSAT-C8               
1 56186U 23054J   26079.87480995  .00016564  00000+0  29391-3 0  9992
2 56186  97.3077 347.7283 0006596  46.3461 313.8336 15.50279135164742
SENTINEL-5P             
1 42969U 17064A   26079.60048122  .00000060  00000+0  49443-4 0  9998
2 42969  98.7898  22.3751 0001155  92.4477 267.6831 14.19501765436999
ENMAP                   
1 52159U 22033C   26079.90705167 -.00000238  00000+0 -27910-4 0  9998
2 52159  97.9786 163.4104 0001197 102.1795 257.9548 14.74977478213646
PRISMA                  
1 44072U 19015A   26079.92714205  .00000049  00000+0  12323-4 0  9994
2 44072  97.8701 155.9937 0001479  85.2535 274.8848 14.83647456378961
SENTINEL-2A             
1 40697U 15028A   26079.89307608  .00000028  00000+0  27181-4 0  9999
2 40697  98.5639 156.0216 0001269  96.9190 263.2137 14.30816707561105
SENTINEL-2B             
1 42063U 17013A   26079.88578603 -.00000047  00000+0 -13177-5 0  9992
2 42063  98.5694 155.9164 0001142  92.2753 267.8561 14.30810732472013
SENTINEL-2C             
1 60989U 24157A   26079.92082667  .00000099  00000+0  54335-4 0  9996
2 60989  98.5671 155.9726 0000980 112.9298 247.1989 14.30818058 80369
LANDSAT 8               
1 39084U 13008A   26079.92212984  .00000305  00000+0  77582-4 0  9997
2 39084  98.1898 151.4624 0001227  91.4921 268.6418 14.57120318685040
LANDSAT 9               
1 49260U 21088A   26079.47587984  .00000322  00000+0  81381-4 0  9997
2 49260  98.1915 151.0870 0001200  91.9208 268.2128 14.57108047238087
TANAGER-1               
1 60507U 24149AR  26078.22294546  .00017538  00000+0  39186-3 0  9998
2 60507  97.3772 171.7322 0007657 222.2858 137.7800 15.43551490 89158
